{
  "type": "FeatureCollection",
  "features": [
    {
      "type": "Feature",
      "properties": {
        "norad_id": 66862,
        "name": "STARLINK-35974",
        "group": "last-30-days",
        "lat": 33.61723948186204,
        "lon": -153.38316870945124,
        "alt_km": 346.95032292130963,
        "timestamp": "2025-12-20T22:39:09.408192+00:00",
        "meta_object_name": "STARLINK-35974",
        "meta_object_id": "2025-281Q",
        "meta_epoch": "2025-12-20T14:00:03.000384",
        "meta_mean_motion": 15.74143783,
        "meta_eccentricity": 0.00010718,
        "meta_inclination": 43.0008,
        "meta_ra_of_asc_node": 74.3149,
        "meta_arg_of_pericenter": 274.6834,
        "meta_mean_anomaly": 326.5905,
        "meta_ephemeris_type": 0,
        "meta_classification_type": "U",
        "meta_norad_cat_id": 66862,
        "meta_element_set_no": 999,
        "meta_rev_at_epoch": 255,
        "meta_bstar": -0.01459441,
        "meta_mean_motion_dot": -0.01877395,
        "meta_mean_motion_ddot": 0,
        "tle_line1": "1 66862U 25281Q   25354.58336806 -.01877395  00000+0 -14594-1 0  9999",
        "tle_line2": "2 66862  43.0008  74.3149 0001071 274.6834 326.5905 15.74143783  2551"
      },
      "geometry": {
        "type": "Point",
        "coordinates": [
          -153.38316870945124,
          33.61723948186204
        ]
      }
    },
    {
      "type": "Feature",
      "properties": {
        "norad_id": 66863,
        "name": "STARLINK-36134",
        "group": "last-30-days",
        "lat": 31.720616183838896,
        "lon": -149.42927112647683,
        "alt_km": 347.37443448133035,
        "timestamp": "2025-12-20T22:39:09.408200+00:00",
        "meta_object_name": "STARLINK-36134",
        "meta_object_id": "2025-281R",
        "meta_epoch": "2025-12-20T14:00:03.000384",
        "meta_mean_motion": 15.74143687,
        "meta_eccentricity": 0.00012433,
        "meta_inclination": 43.0008,
        "meta_ra_of_asc_node": 74.3054,
        "meta_arg_of_pericenter": 279.0246,
        "meta_mean_anomaly": 326.0842,
        "meta_ephemeris_type": 0,
        "meta_classification_type": "U",
        "meta_norad_cat_id": 66863,
        "meta_element_set_no": 999,
        "meta_rev_at_epoch": 265,
        "meta_bstar": -0.014612496,
        "meta_mean_motion_dot": -0.0187955,
        "meta_mean_motion_ddot": 0,
        "tle_line1": "1 66863U 25281R   25354.58336806 -.01879550  00000+0 -14612-1 0  9996",
        "tle_line2": "2 66863  43.0008  74.3054 0001243 279.0246 326.0842 15.74143687  2653"
      },
      "geometry": {
        "type": "Point",
        "coordinates": [
          -149.42927112647683,
          31.720616183838896
        ]
      }
    },
    {
      "type": "Feature",
      "properties": {
        "norad_id": 66864,
        "name": "STARLINK-36070",
        "group": "last-30-days",
        "lat": 30.727225204919485,
        "lon": -147.51469028607175,
        "alt_km": 347.356626356408,
        "timestamp": "2025-12-20T22:39:09.408209+00:00",
        "meta_object_name": "STARLINK-36070",
        "meta_object_id": "2025-281S",
        "meta_epoch": "2025-12-20T14:00:03.000384",
        "meta_mean_motion": 15.74143568,
        "meta_eccentricity": 0.00010065,
        "meta_inclination": 43.0006,
        "meta_ra_of_asc_node": 74.3004,
        "meta_arg_of_pericenter": 277.1067,
        "meta_mean_anomaly": 329.9165,
        "meta_ephemeris_type": 0,
        "meta_classification_type": "U",
        "meta_norad_cat_id": 66864,
        "meta_element_set_no": 999,
        "meta_rev_at_epoch": 268,
        "meta_bstar": -0.014585599,
        "meta_mean_motion_dot": -0.01876343,
        "meta_mean_motion_ddot": 0,
        "tle_line1": "1 66864U 25281S   25354.58336806 -.01876343  00000+0 -14586-1 0  9994",
        "tle_line2": "2 66864  43.0006  74.3004 0001006 277.1067 329.9165 15.74143568  2685"
      },
      "geometry": {
        "type": "Point",
        "coordinates": [
          -147.51469028607175,
          30.727225204919485
        ]
      }
    },
    {
      "type": "Feature",
      "properties": {
        "norad_id": 66865,
        "name": "STARLINK-36117",
        "group": "last-30-days",
        "lat": 28.66030800089214,
        "lon": -143.80405252440409,
        "alt_km": 347.6918640297881,
        "timestamp": "2025-12-20T22:39:09.408226+00:00",
        "meta_object_name": "STARLINK-36117",
        "meta_object_id": "2025-281T",
        "meta_epoch": "2025-12-20T14:00:03.000384",
        "meta_mean_motion": 15.74145061,
        "meta_eccentricity": 0.00012519,
        "meta_inclination": 43.0006,
        "meta_ra_of_asc_node": 74.291,
        "meta_arg_of_pericenter": 269.1907,
        "meta_mean_anomaly": 341.6689,
        "meta_ephemeris_type": 0,
        "meta_classification_type": "U",
        "meta_norad_cat_id": 66865,
        "meta_element_set_no": 999,
        "meta_rev_at_epoch": 265,
        "meta_bstar": -0.01461035,
        "meta_mean_motion_dot": -0.01879417,
        "meta_mean_motion_ddot": 0,
        "tle_line1": "1 66865U 25281T   25354.58336806 -.01879417  00000+0 -14610-1 0  9998",
        "tle_line2": "2 66865  43.0006  74.2910 0001251 269.1907 341.6689 15.74145061  2656"
      },
      "geometry": {
        "type": "Point",
        "coordinates": [
          -143.80405252440409,
          28.66030800089214
        ]
      }
    },
    {
      "type": "Feature",
      "properties": {
        "norad_id": 66866,
        "name": "STARLINK-36126",
        "group": "last-30-days",
        "lat": 27.588421570028785,
        "lon": -142.0030307163532,
        "alt_km": 347.75103097322153,
        "timestamp": "2025-12-20T22:39:09.408237+00:00",
        "meta_object_name": "STARLINK-36126",
        "meta_object_id": "2025-281U",
        "meta_epoch": "2025-12-20T14:00:03.000384",
        "meta_mean_motion": 15.74143761,
        "meta_eccentricity": 0.0001014,
        "meta_inclination": 43.0007,
        "meta_ra_of_asc_node": 74.2861,
        "meta_arg_of_pericenter": 271.1652,
        "meta_mean_anomaly": 341.6098,
        "meta_ephemeris_type": 0,
        "meta_classification_type": "U",
        "meta_norad_cat_id": 66866,
        "meta_element_set_no": 999,
        "meta_rev_at_epoch": 268,
        "meta_bstar": -0.014582505,
        "meta_mean_motion_dot": -0.01876018,
        "meta_mean_motion_ddot": 0,
        "tle_line1": "1 66866U 25281U   25354.58336806 -.01876018  00000+0 -14583-1 0  9992",
        "tle_line2": "2 66866  43.0007  74.2861 0001014 271.1652 341.6098 15.74143761  2682"
      },
      "geometry": {
        "type": "Point",
        "coordinates": [
          -142.0030307163532,
          27.588421570028785
        ]
      }
    },
    {
      "type": "Feature",
      "properties": {
        "norad_id": 66867,
        "name": "STARLINK-36101",
        "group": "last-30-days",
        "lat": 26.494292999230566,
        "lon": -140.2376323620917,
        "alt_km": 348.0583795321054,
        "timestamp": "2025-12-20T22:39:09.408247+00:00",
        "meta_object_name": "STARLINK-36101",
        "meta_object_id": "2025-281V",
        "meta_epoch": "2025-12-20T14:00:03.000384",
        "meta_mean_motion": 15.74141535,
        "meta_eccentricity": 0.00011089,
        "meta_inclination": 43.0007,
        "meta_ra_of_asc_node": 74.2821,
        "meta_arg_of_pericenter": 279.4588,
        "meta_mean_anomaly": 335.2335,
        "meta_ephemeris_type": 0,
        "meta_classification_type": "U",
        "meta_norad_cat_id": 66867,
        "meta_element_set_no": 999,
        "meta_rev_at_epoch": 249,
        "meta_bstar": -0.014568768,
        "meta_mean_motion_dot": -0.01874407,
        "meta_mean_motion_ddot": 0,
        "tle_line1": "1 66867U 25281V   25354.58336806 -.01874407  00000+0 -14569-1 0  9997",
        "tle_line2": "2 66867  43.0007  74.2821 0001108 279.4588 335.2335 15.74141535  2491"
      },
      "geometry": {
        "type": "Point",
        "coordinates": [
          -140.2376323620917,
          26.494292999230566
        ]
      }
    },
    {
      "type": "Feature",
      "properties": {
        "norad_id": 66868,
        "name": "STARLINK-36108",
        "group": "last-30-days",
        "lat": 25.3786672625504,
        "lon": -138.50732379713136,
        "alt_km": 348.14476008900056,
        "timestamp": "2025-12-20T22:39:09.408256+00:00",
        "meta_object_name": "STARLINK-36108",
        "meta_object_id": "2025-281W",
        "meta_epoch": "2025-12-20T14:00:03.000384",
        "meta_mean_motion": 15.74140988,
        "meta_eccentricity": 0.00010949,
        "meta_inclination": 43.0005,
        "meta_ra_of_asc_node": 74.2768,
        "meta_arg_of_pericenter": 274.0217,
        "meta_mean_anomaly": 342.5896,
        "meta_ephemeris_type": 0,
        "meta_classification_type": "U",
        "meta_norad_cat_id": 66868,
        "meta_element_set_no": 999,
        "meta_rev_at_epoch": 249,
        "meta_bstar": -0.014567219,
        "meta_mean_motion_dot": -0.01874183,
        "meta_mean_motion_ddot": 0,
        "tle_line1": "1 66868U 25281W   25354.58336806 -.01874183  00000+0 -14567-1 0  9997",
        "tle_line2": "2 66868  43.0005  74.2768 0001094 274.0217 342.5896 15.74140988  2498"
      },
      "geometry": {
        "type": "Point",
        "coordinates": [
          -138.50732379713136,
          25.3786672625504
        ]
      }
    }
  ]
}